{"fetched_at":"2026-07-18T17:29:57.623Z","source":"https://celestrak.org/NORAD/elements/gp.php?NAME=HULIANWANG&FORMAT=JSON","constellation":"guowang","records":[{"OBJECT_NAME":"HULIANWANG DIGUI-28","OBJECT_ID":"2025-086J","EPOCH":"2026-07-18T07:03:34.458912","CLASSIFICATION_TYPE":"U","MEAN_MOTION":13.24411096,"ECCENTRICITY":0.00021368,"INCLINATION":86.5021,"RA_OF_ASC_NODE":302.4534,"ARG_OF_PERICENTER":111.0569,"MEAN_ANOMALY":249.0794,"EPHEMERIS_TYPE":0,"NORAD_CAT_ID":63695,"ELEMENT_SET_NO":999,"REV_AT_EPOCH":5897,"BSTAR":0.00007724781,"MEAN_MOTION_DOT":4.8e-7,"MEAN_MOTION_DDOT":0},{"OBJECT_NAME":"HULIANWANG DIGUI-29","OBJECT_ID":"2025-086K","EPOCH":"2026-07-18T06:52:44.575392","CLASSIFICATION_TYPE":"U","MEAN_MOTION":13.24411434,"ECCENTRICITY":0.00020059,"INCLINATION":86.5049,"RA_OF_ASC_NODE":302.5724,"ARG_OF_PERICENTER":113.3078,"MEAN_ANOMALY":246.8267,"EPHEMERIS_TYPE":0,"NORAD_CAT_ID":63696,"ELEMENT_SET_NO":999,"REV_AT_EPOCH":5897,"BSTAR":0.000037008349,"MEAN_MOTION_DOT":3.1e-7,"MEAN_MOTION_DDOT":0},{"OBJECT_NAME":"HULIANWANG DIGUI-30","OBJECT_ID":"2025-121A","EPOCH":"2026-07-18T05:14:40.264512","CLASSIFICATION_TYPE":"U","MEAN_MOTION":13.24409537,"ECCENTRICITY":0.00019414,"INCLINATION":86.4999,"RA_OF_ASC_NODE":3.0855,"ARG_OF_PERICENTER":88.9912,"MEAN_ANOMALY":271.1445,"EPHEMERIS_TYPE":0,"NORAD_CAT_ID":64283,"ELEMENT_SET_NO":999,"REV_AT_EPOCH":5426,"BSTAR":-0.000029046724,"MEAN_MOTION_DOT":2e-8,"MEAN_MOTION_DDOT":0},{"OBJECT_NAME":"HULIANWANG DIGUI-31","OBJECT_ID":"2025-121B","EPOCH":"2026-07-18T05:03:51.054048","CLASSIFICATION_TYPE":"U","MEAN_MOTION":13.24414507,"ECCENTRICITY":0.00019361,"INCLINATION":86.5019,"RA_OF_ASC_NODE":3.1652,"ARG_OF_PERICENTER":89.3223,"MEAN_ANOMALY":270.8132,"EPHEMERIS_TYPE":0,"NORAD_CAT_ID":64284,"ELEMENT_SET_NO":999,"REV_AT_EPOCH":5426,"BSTAR":-0.000044541514,"MEAN_MOTION_DOT":-4e-8,"MEAN_MOTION_DDOT":0},{"OBJECT_NAME":"HULIANWANG DIGUI-32","OBJECT_ID":"2025-121C","EPOCH":"2026-07-18T06:41:34.074240","CLASSIFICATION_TYPE":"U","MEAN_MOTION":13.24410401,"ECCENTRICITY":0.00019123,"INCLINATION":86.4961,"RA_OF_ASC_NODE":2.8954,"ARG_OF_PERICENTER":93.5813,"MEAN_ANOMALY":266.554,"EPHEMERIS_TYPE":0,"NORAD_CAT_ID":64285,"ELEMENT_SET_NO":999,"REV_AT_EPOCH":5427,"BSTAR":-0.000025533439,"MEAN_MOTION_DOT":4e-8,"MEAN_MOTION_DDOT":0},{"OBJECT_NAME":"HULIANWANG DIGUI-33","OBJECT_ID":"2025-121D","EPOCH":"2026-07-18T06:30:41.915808","CLASSIFICATION_TYPE":"U","MEAN_MOTION":13.24409986,"ECCENTRICITY":0.00019595,"INCLINATION":86.5019,"RA_OF_ASC_NODE":3.1284,"ARG_OF_PERICENTER":89.5964,"MEAN_ANOMALY":270.5395,"EPHEMERIS_TYPE":0,"NORAD_CAT_ID":64286,"ELEMENT_SET_NO":999,"REV_AT_EPOCH":5427,"BSTAR":-0.000009325631,"MEAN_MOTION_DOT":1.1e-7,"MEAN_MOTION_DDOT":0},{"OBJECT_NAME":"HULIANWANG DIGUI-34","OBJECT_ID":"2025-121E","EPOCH":"2026-07-18T06:19:52.287168","CLASSIFICATION_TYPE":"U","MEAN_MOTION":13.24410738,"ECCENTRICITY":0.00021202,"INCLINATION":86.4996,"RA_OF_ASC_NODE":3.0337,"ARG_OF_PERICENTER":81.6024,"MEAN_ANOMALY":278.535,"EPHEMERIS_TYPE":0,"NORAD_CAT_ID":64287,"ELEMENT_SET_NO":999,"REV_AT_EPOCH":5427,"BSTAR":0.000058339741,"MEAN_MOTION_DOT":4e-7,"MEAN_MOTION_DDOT":0},{"OBJECT_NAME":"HULIANWANG DIGUI-35","OBJECT_ID":"2025-159A","EPOCH":"2026-07-18T05:25:42.968064","CLASSIFICATION_TYPE":"U","MEAN_MOTION":13.24413307,"ECCENTRICITY":0.0004367,"INCLINATION":86.4938,"RA_OF_ASC_NODE":271.9446,"ARG_OF_PERICENTER":59.8716,"MEAN_ANOMALY":300.285,"EPHEMERIS_TYPE":0,"NORAD_CAT_ID":64956,"ELEMENT_SET_NO":999,"REV_AT_EPOCH":4723,"BSTAR":0.00011358306,"MEAN_MOTION_DOT":6.3e-7,"MEAN_MOTION_DDOT":0},{"OBJECT_NAME":"HULIANWANG DIGUI-36","OBJECT_ID":"2025-159B","EPOCH":"2026-07-18T07:08:53.172096","CLASSIFICATION_TYPE":"U","MEAN_MOTION":13.24408711,"ECCENTRICITY":0.00016574,"INCLINATION":86.4957,"RA_OF_ASC_NODE":271.9867,"ARG_OF_PERICENTER":103.106,"MEAN_ANOMALY":257.0259,"EPHEMERIS_TYPE":0,"NORAD_CAT_ID":64957,"ELEMENT_SET_NO":999,"REV_AT_EPOCH":4724,"BSTAR":0.000091389829,"MEAN_MOTION_DOT":5.4e-7,"MEAN_MOTION_DDOT":0},{"OBJECT_NAME":"HULIANWANG DIGUI-37","OBJECT_ID":"2025-159C","EPOCH":"2026-07-18T06:57:58.945248","CLASSIFICATION_TYPE":"U","MEAN_MOTION":13.24409422,"ECCENTRICITY":0.00017817,"INCLINATION":86.4898,"RA_OF_ASC_NODE":271.7749,"ARG_OF_PERICENTER":98.3409,"MEAN_ANOMALY":261.7927,"EPHEMERIS_TYPE":0,"NORAD_CAT_ID":64958,"ELEMENT_SET_NO":999,"REV_AT_EPOCH":4724,"BSTAR":0.000071586478,"MEAN_MOTION_DOT":4.5e-7,"MEAN_MOTION_DDOT":0},{"OBJECT_NAME":"HULIANWANG DIGUI-38","OBJECT_ID":"2025-159D","EPOCH":"2026-07-18T06:47:09.332160","CLASSIFICATION_TYPE":"U","MEAN_MOTION":13.24409118,"ECCENTRICITY":0.00018402,"INCLINATION":86.4957,"RA_OF_ASC_NODE":271.9795,"ARG_OF_PERICENTER":99.1972,"MEAN_ANOMALY":260.9371,"EPHEMERIS_TYPE":0,"NORAD_CAT_ID":64959,"ELEMENT_SET_NO":999,"REV_AT_EPOCH":4724,"BSTAR":0.00004261973,"MEAN_MOTION_DOT":3.3e-7,"MEAN_MOTION_DDOT":0},{"OBJECT_NAME":"HULIANWANG DIGUI-39","OBJECT_ID":"2025-159E","EPOCH":"2026-07-18T06:36:15.514848","CLASSIFICATION_TYPE":"U","MEAN_MOTION":13.24409018,"ECCENTRICITY":0.00018185,"INCLINATION":86.4933,"RA_OF_ASC_NODE":271.8904,"ARG_OF_PERICENTER":102.0546,"MEAN_ANOMALY":258.0792,"EPHEMERIS_TYPE":0,"NORAD_CAT_ID":64960,"ELEMENT_SET_NO":999,"REV_AT_EPOCH":4724,"BSTAR":0.00003143677,"MEAN_MOTION_DOT":2.8e-7,"MEAN_MOTION_DDOT":0},{"OBJECT_NAME":"HULIANWANG DIGUI-40","OBJECT_ID":"2025-162A","EPOCH":"2026-07-18T06:58:11.622720","CLASSIFICATION_TYPE":"U","MEAN_MOTION":13.29327479,"ECCENTRICITY":0.00002753,"INCLINATION":49.9981,"RA_OF_ASC_NODE":154.3767,"ARG_OF_PERICENTER":334.5003,"MEAN_ANOMALY":25.5855,"EPHEMERIS_TYPE":0,"NORAD_CAT_ID":65043,"ELEMENT_SET_NO":999,"REV_AT_EPOCH":4748,"BSTAR":0.000051172116,"MEAN_MOTION_DOT":-0.000001,"MEAN_MOTION_DDOT":0},{"OBJECT_NAME":"HULIANWANG DIGUI-41","OBJECT_ID":"2025-162B","EPOCH":"2026-07-18T06:46:11.410464","CLASSIFICATION_TYPE":"U","MEAN_MOTION":13.29327033,"ECCENTRICITY":0.00002661,"INCLINATION":49.9992,"RA_OF_ASC_NODE":154.361,"ARG_OF_PERICENTER":345.6709,"MEAN_ANOMALY":14.4155,"EPHEMERIS_TYPE":0,"NORAD_CAT_ID":65044,"ELEMENT_SET_NO":999,"REV_AT_EPOCH":4749,"BSTAR":0.0000329361,"MEAN_MOTION_DOT":-0.00000109,"MEAN_MOTION_DDOT":0},{"OBJECT_NAME":"HULIANWANG DIGUI-42","OBJECT_ID":"2025-162C","EPOCH":"2026-07-18T06:34:03.836928","CLASSIFICATION_TYPE":"U","MEAN_MOTION":13.2932767,"ECCENTRICITY":0.00002673,"INCLINATION":49.9957,"RA_OF_ASC_NODE":154.2202,"ARG_OF_PERICENTER":333.3417,"MEAN_ANOMALY":26.7441,"EPHEMERIS_TYPE":0,"NORAD_CAT_ID":65045,"ELEMENT_SET_NO":999,"REV_AT_EPOCH":4749,"BSTAR":0.000028769222,"MEAN_MOTION_DOT":-0.00000111,"MEAN_MOTION_DDOT":0},{"OBJECT_NAME":"HULIANWANG DIGUI-43","OBJECT_ID":"2025-162D","EPOCH":"2026-07-18T06:22:05.598048","CLASSIFICATION_TYPE":"U","MEAN_MOTION":13.29326198,"ECCENTRICITY":0.00003086,"INCLINATION":49.9974,"RA_OF_ASC_NODE":154.2262,"ARG_OF_PERICENTER":329.0985,"MEAN_ANOMALY":30.9869,"EPHEMERIS_TYPE":0,"NORAD_CAT_ID":65046,"ELEMENT_SET_NO":999,"REV_AT_EPOCH":4749,"BSTAR":0.000022367303,"MEAN_MOTION_DOT":-0.00000114,"MEAN_MOTION_DDOT":0}]}
