HULIANWANG DIGUI-28     
1 63695U 25086J   26199.29414883  .00000048  00000+0  77248-4 0  9999
2 63695  86.5021 302.4534 0002136 111.0569 249.0794 13.24411096 58974
HULIANWANG DIGUI-29     
1 63696U 25086K   26199.28662703  .00000031  00000+0  37008-4 0  9997
2 63696  86.5049 302.5724 0002005 113.3078 246.8267 13.24411434 58978
HULIANWANG DIGUI-30     
1 64283U 25121A   26199.21852158  .00000002  00000+0 -29047-4 0  9991
2 64283  86.4999   3.0855 0001941  88.9912 271.1445 13.24409537 54262
HULIANWANG DIGUI-31     
1 64284U 25121B   26199.21100757 -.00000004  00000+0 -44542-4 0  9993
2 64284  86.5019   3.1652 0001936  89.3223 270.8132 13.24414507 54269
HULIANWANG DIGUI-32     
1 64285U 25121C   26199.27886660  .00000004  00000+0 -25533-4 0  9992
2 64285  86.4961   2.8954 0001912  93.5813 266.5540 13.24410401 54277
HULIANWANG DIGUI-33     
1 64286U 25121D   26199.27131847  .00000011  00000+0 -93256-5 0  9999
2 64286  86.5019   3.1284 0001959  89.5964 270.5395 13.24409986 54275
HULIANWANG DIGUI-34     
1 64287U 25121E   26199.26379962  .00000040  00000+0  58340-4 0  9996
2 64287  86.4996   3.0337 0002120  81.6024 278.5350 13.24410738 54274
HULIANWANG DIGUI-35     
1 64956U 25159A   26199.22619176  .00000063  00000+0  11358-3 0  9992
2 64956  86.4938 271.9446 0004367  59.8716 300.2850 13.24413307 47231
HULIANWANG DIGUI-36     
1 64957U 25159B   26199.29783764  .00000054  00000+0  91390-4 0  9990
2 64957  86.4957 271.9867 0001657 103.1060 257.0259 13.24408711 47240
HULIANWANG DIGUI-37     
1 64958U 25159C   26199.29026557  .00000045  00000+0  71586-4 0  9996
2 64958  86.4898 271.7749 0001781  98.3409 261.7927 13.24409422 47246
HULIANWANG DIGUI-38     
1 64959U 25159D   26199.28274690  .00000033  00000+0  42620-4 0  9993
2 64959  86.4957 271.9795 0001840  99.1972 260.9371 13.24409118 47242
HULIANWANG DIGUI-39     
1 64960U 25159E   26199.27517957  .00000028  00000+0  31437-4 0  9998
2 64960  86.4933 271.8904 0001818 102.0546 258.0792 13.24409018 47249
HULIANWANG DIGUI-40     
1 65043U 25162A   26199.29041230 -.00000100  00000+0  51172-4 0  9993
2 65043  49.9981 154.3767 0000275 334.5003  25.5855 13.29327479 47485
HULIANWANG DIGUI-41     
1 65044U 25162B   26199.28207651 -.00000109  00000+0  32936-4 0  9990
2 65044  49.9992 154.3610 0000266 345.6709  14.4155 13.29327033 47498
HULIANWANG DIGUI-42     
1 65045U 25162C   26199.27365552 -.00000111  00000+0  28769-4 0  9997
2 65045  49.9957 154.2202 0000267 333.3417  26.7441 13.29327670 47498
HULIANWANG DIGUI-43     
1 65046U 25162D   26199.26534257 -.00000114  00000+0  22367-4 0  9998
2 65046  49.9974 154.2262 0000308 329.0985  30.9869 13.29326198 47497
